NORAD_CAT_ID,OBJECT_NAME,OBJECT_TYPE,EPOCH,MEAN_MOTION,ECCENTRICITY,INCLINATION,RA_OF_ASC_NODE,ARG_OF_PERICENTER,MEAN_ANOMALY,BSTAR,MEAN_MOTION_DOT,MEAN_MOTION_DDOT,TLE_LINE0,TLE_LINE1,TLE_LINE2,SEMIMAJOR_AXIS,PERIOD,APOGEE,PERIGEE,DECAYED
55930.0,STARLINK-5896,PAYLOAD,2023-04-17 08:54:37,15.69927164,0.000276,69.9999,95.0299,258.2204,101.8682,-1.4806e-06,-3.9e-06,0.0,0 STARLINK-5896,1 55930U 23037S   23107.37126979 -.00000390  00000-0 -14806-5 0  9992,2 55930  69.9999  95.0299 0002760 258.2204 101.8682 15.69927164  4995,6737.242,91.724,360.967,357.248,0.0
55930.0,STARLINK-5896,PAYLOAD,2023-04-18 09:22:39,15.69926342,0.0003167,70.0028,92.1618,266.275,93.8084,2.3254e-05,2.585e-05,0.0,0 STARLINK-5896,1 55930U 23037S   23108.39073731  .00002585  00000-0  23254-4 0  9994,2 55930  70.0028  92.1618 0003167 266.2750  93.8084 15.69926342  5490,6737.245,91.724,361.243,356.976,0.0
55930.0,STARLINK-5896,PAYLOAD,2023-04-19 08:18:56,15.69937221,0.0002839,70.0007,89.4764,254.6853,105.4029,1.1264e-05,1.143e-05,0.0,0 STARLINK-5896,1 55930U 23037S   23109.34648338  .00001143  00000-0  11264-4 0  9998,2 55930  70.0007  89.4764 0002839 254.6853 105.4029 15.69937221  5305,6737.214,91.723,360.991,357.166,0.0
55930.0,STARLINK-5896,PAYLOAD,2023-04-20 01:08:12,15.69926443,0.0002993,70.0013,87.5031,256.166,103.9203,1.865e-06,1.2e-07,0.0,0 STARLINK-5896,1 55930U 23037S   23110.04737235  .00000012  00000-0  18650-5 0  9993,2 55930  70.0013  87.5031 0002993 256.1660 103.9203 15.69926443  5752,6737.244,91.724,361.126,357.093,0.0
55930.0,STARLINK-5896,PAYLOAD,2023-04-20 08:46:58,15.69928054,0.0002962,70.0012,86.6065,257.5666,102.5198,9.0045e-06,8.7e-06,0.0,0 STARLINK-5896,1 55930U 23037S   23110.36595539  .00000870  00000-0  90045-5 0  9997,2 55930  70.0012  86.6065 0002962 257.5666 102.5198 15.69928054  5461,6737.24,91.724,361.1,357.109,0.0
55930.0,STARLINK-5896,PAYLOAD,2023-04-21 06:11:29,15.6993963,0.000327,70.0009,84.1024,259.1913,100.8915,3.4585e-05,3.95e-05,0.0,0 STARLINK-5896,1 55930U 23037S   23111.25798405  .00003950  00000-0  34585-4 0  9991,2 55930  70.0009  84.1024 0003270 259.1913 100.8915 15.69939630  5607,6737.207,91.723,361.275,356.869,0.0
55930.0,STARLINK-5896,PAYLOAD,2023-04-21 21:29:01,15.69920393,0.0003313,70.0012,82.3075,274.2014,85.8803,7.2743e-06,6.62e-06,0.0,0 STARLINK-5896,1 55930U 23037S   23111.89516187  .00000662  00000-0  72743-5 0  9992,2 55930  70.0012  82.3075 0003313 274.2014  85.8803 15.69920393  5700,6737.262,91.724,361.359,356.895,0.0
55930.0,STARLINK-5896,PAYLOAD,2023-04-21 23:00:46,15.6992702,0.0003484,70.0004,82.1317,275.5423,84.5375,4.6218e-06,3.43e-06,0.0,0 STARLINK-5896,1 55930U 23037S   23111.95887431  .00000343  00000-0  46218-5 0  9996,2 55930  70.0004  82.1317 0003484 275.5423  84.5375 15.69927020  5710,6737.243,91.724,361.455,356.761,0.0
55930.0,STARLINK-5896,PAYLOAD,2023-04-23 08:39:19,15.69926384,0.0002728,70.001,78.1903,264.8659,95.2226,-3.0977e-06,-5.85e-06,0.0,0 STARLINK-5896,1 55930U 23037S   23113.36064454 -.00000585  00000-0 -30977-5 0  9990,2 55930  70.0010  78.1903 0002728 264.8659  95.2226 15.69926384  5935,6737.245,91.724,360.948,357.272,0.0
55930.0,STARLINK-5896,PAYLOAD,2023-04-24 07:35:35,15.6994828,0.000283,70.0024,75.5029,258.7595,101.3283,3.6043e-05,4.127e-05,0.0,0 STARLINK-5896,1 55930U 23037S   23114.31638022  .00004127  00000-0  36043-4 0  9997,2 55930  70.0024  75.5029 0002830 258.7595 101.3283 15.69948280  6421,6737.182,91.723,360.954,357.14,0.0
55930.0,STARLINK-5896,PAYLOAD,2023-04-25 03:28:24,15.69896152,0.0003254,70.0013,73.1745,271.0489,89.0333,-4.5251e-05,-5.644e-05,0.0,0 STARLINK-5896,1 55930U 23037S   23115.14472681 -.00005644  00000-0 -45251-4 0  9994,2 55930  70.0013  73.1745 0003254 271.0489  89.0333 15.69896152  6551,6737.331,91.726,361.388,357.004,0.0
55930.0,STARLINK-5896,PAYLOAD,2023-04-25 06:31:54,15.69900675,0.0003124,70.0014,72.8164,270.6688,89.4149,-3.4763e-05,-4.386e-05,0.0,0 STARLINK-5896,1 55930U 23037S   23115.27215937 -.00004386  00000-0 -34763-4 0  9995,2 55930  70.0014  72.8164 0003124 270.6688  89.4149 15.69900675  6235,6737.318,91.726,361.288,357.078,0.0
55930.0,STARLINK-5896,PAYLOAD,2023-04-26 06:59:54,15.6993698,0.0002756,70.0,69.9491,258.4796,101.6091,2.8392e-05,3.204e-05,0.0,0 STARLINK-5896,1 55930U 23037S   23116.29160803  .00003204  00000-0  28392-4 0  9996,2 55930  70.0000  69.9491 0002756 258.4796 101.6091 15.69936980  6392,6737.214,91.723,360.936,357.223,0.0
55930.0,STARLINK-5896,PAYLOAD,2023-04-26 14:38:41,15.69925124,0.0002532,70.0018,69.0544,272.7656,87.325,4.6004e-05,5.322e-05,0.0,0 STARLINK-5896,1 55930U 23037S   23116.61019919  .00005322  00000-0  46004-4 0  9996,2 55930  70.0018  69.0544 0002532 272.7656  87.3250 15.69925124  6448,6737.248,91.724,360.819,357.407,0.0
55930.0,STARLINK-5896,PAYLOAD,2023-04-27 07:27:57,15.69920637,0.0002647,70.001,67.0839,261.7273,98.3623,3.7828e-05,4.337e-05,0.0,0 STARLINK-5896,1 55930U 23037S   23117.31108594  .00004337  00000-0  37828-4 0  9991,2 55930  70.0010  67.0839 0002647 261.7273  98.3623 15.69920637  6557,6737.261,91.724,360.909,357.343,0.0
55930.0,STARLINK-5896,PAYLOAD,2023-04-27 21:13:43,15.69921978,0.0002748,69.9995,65.4719,271.5478,88.5403,7.3839e-06,6.75e-06,0.0,0 STARLINK-5896,1 55930U 23037S   23117.88453282  .00000675  00000-0  73839-5 0  9994,2 55930  69.9995  65.4719 0002748 271.5478  88.5403 15.69921978  6986,6737.257,91.724,360.974,357.271,0.0
55930.0,STARLINK-5896,PAYLOAD,2023-04-28 04:52:45,15.69512513,0.000168,70.0013,64.5789,306.1792,53.9248,-0.0008156,-0.00095509,0.0,0 STARLINK-5896,1 55930U 23037S   23118.20330740 -.00095509  00000-0 -81560-3 0  9994,2 55930  70.0013  64.5789 0001680 306.1792  53.9248 15.69512513  7036,6738.429,91.748,361.426,359.162,0.0
55930.0,STARLINK-5896,PAYLOAD,2023-04-28 15:34:46,15.69891754,0.0002739,70.0015,63.3252,282.2747,77.8142,-2.8881e-05,-3.678e-05,0.0,0 STARLINK-5896,1 55930U 23037S   23118.64914979 -.00003678  00000-0 -28881-4 0  9998,2 55930  70.0015  63.3252 0002739 282.2747  77.8142 15.69891754  7103,6737.344,91.726,361.054,357.363,0.0
55930.0,STARLINK-5896,PAYLOAD,2023-04-29 02:17:02,15.69895462,0.000315,69.999,62.0691,271.5679,88.5156,-3.4583e-05,-4.364e-05,0.0,0 STARLINK-5896,1 55930U 23037S   23119.09516908 -.00004364  00000-0 -34583-4 0  9997,2 55930  69.9990  62.0691 0003150 271.5679  88.5156 15.69895462  7179,6737.333,91.726,361.32,357.076,0.0
55930.0,STARLINK-5896,PAYLOAD,2023-04-29 05:20:28,15.70010124,0.0002752,70.0004,61.7108,258.7961,101.2925,0.00018867,0.00022613,0.0,0 STARLINK-5896,1 55930U 23037S   23119.22254767  .00022613  00000-0  18867-3 0  9995,2 55930  70.0004  61.7108 0002752 258.7961 101.2925 15.70010124  6852,6737.005,91.719,360.724,357.016,0.0
55930.0,STARLINK-5896,PAYLOAD,2023-04-30 04:16:47,15.69943393,0.00032,70.0036,59.0266,214.6967,145.402,3.9743e-05,4.572e-05,0.0,0 STARLINK-5896,1 55930U 23037S   23120.17832414  .00004572  00000-0  39743-4 0  9993,2 55930  70.0036  59.0266 0003200 214.6967 145.4020 15.69943393  7340,6737.196,91.723,361.217,356.905,0.0
55930.0,STARLINK-5896,PAYLOAD,2023-04-30 21:06:05,15.69906781,0.0003557,70.0019,57.0554,274.4614,85.6175,1.2113e-05,1.243e-05,0.0,0 STARLINK-5896,1 55930U 23037S   23120.87922658  .00001243  00000-0  12113-4 0  9994,2 55930  70.0019  57.0554 0003557 274.4614  85.6175 15.69906781  7455,6737.301,91.725,361.562,356.769,0.0
55930.0,STARLINK-5896,PAYLOAD,2023-05-01 04:44:49,15.69946556,0.000245,70.0029,56.1588,249.615,110.4783,-0.00010484,-0.00012809,0.0,0 STARLINK-5896,1 55930U 23037S   23121.19779032 -.00012809  00000-0 -10484-3 0  9996,2 55930  70.0029  56.1588 0002450 249.6150 110.4783 15.69946556  7505,6737.187,91.723,360.703,357.401,0.0
55930.0,STARLINK-5896,PAYLOAD,2023-05-01 06:16:34,15.69944833,0.0002468,70.0022,55.9788,253.5229,106.5696,-8.566e-05,-0.00010506,0.0,0 STARLINK-5896,1 55930U 23037S   23121.26150774 -.00010506  00000-0 -85660-4 0  9991,2 55930  70.0022  55.9788 0002468 253.5229 106.5696 15.69944833  7175,6737.192,91.723,360.72,357.394,0.0
55930.0,STARLINK-5896,PAYLOAD,2023-05-01 21:34:06,15.69931867,0.0003312,70.0014,54.1869,265.4306,94.6511,-5.4104e-07,-2.78e-06,0.0,0 STARLINK-5896,1 55930U 23037S   23121.89868200 -.00000278  00000-0 -54104-6 0  9996,2 55930  70.0014  54.1869 0003312 265.4306  94.6511 15.69931867  7271,6737.229,91.724,361.325,356.863,0.0
55930.0,STARLINK-5896,PAYLOAD,2023-05-01 23:05:51,15.69931777,0.0003363,70.0014,54.0077,265.4731,94.6081,-1.6913e-07,-2.33e-06,0.0,0 STARLINK-5896,1 55930U 23037S   23121.96239858 -.00000233  00000-0 -16913-6 0  9992,2 55930  70.0014  54.0077 0003363 265.4731  94.6081 15.69931777  7620,6737.229,91.724,361.36,356.828,0.0
55930.0,STARLINK-5896,PAYLOAD,2023-05-02 12:51:37,15.69921144,0.0003199,70.0015,52.3946,268.4303,91.6527,2.2107e-05,2.446e-05,0.0,0 STARLINK-5896,1 55930U 23037S   23122.53585555  .00002446  00000-0  22107-4 0  9990,2 55930  70.0015  52.3946 0003199 268.4303  91.6527 15.69921144  7711,6737.26,91.724,361.28,356.969,0.0
55930.0,STARLINK-5896,PAYLOAD,2023-05-02 20:30:24,15.69911001,0.0002766,70.0024,51.4992,267.5637,92.5242,-6.5867e-06,-1.004e-05,0.0,0 STARLINK-5896,1 55930U 23037S   23122.85444703 -.00001004  00000-0 -65867-5 0  9996,2 55930  70.0024  51.4992 0002766 267.5637  92.5242 15.69911001  7424,6737.289,91.725,361.017,357.29,0.0
55930.0,STARLINK-5896,PAYLOAD,2023-05-03 04:09:09,15.69911592,0.0002775,70.0022,50.6028,265.8433,94.2445,-6.4197e-06,-9.84e-06,0.0,0 STARLINK-5896,1 55930U 23037S   23123.17303234 -.00000984  00000-0 -64197-5 0  9996,2 55930  70.0022  50.6028 0002775 265.8433  94.2445 15.69911592  7810,6737.287,91.725,361.022,357.282,0.0
55930.0,STARLINK-5896,PAYLOAD,2023-05-03 05:40:54,15.69920866,0.0003304,70.0015,50.4223,261.878,98.2041,1.0281e-05,1.024e-05,0.0,0 STARLINK-5896,1 55930U 23037S   23123.23674314  .00001024  00000-0  10281-4 0  9991,2 55930  70.0015  50.4223 0003304 261.8780  98.2041 15.69920866  7828,6737.26,91.724,361.351,356.899,0.0
